{
  "type": "FeatureCollection",
  "features": [
    {
      "type": "Feature",
      "properties": {
        "norad_id": 22490,
        "name": "SCD 1",
        "group": "resource",
        "lat": -8.041998530704927,
        "lon": -159.94915016173027,
        "alt_km": 736.9625218114688,
        "timestamp": "2025-12-22T14:45:57.041204+00:00",
        "meta_object_name": "SCD 1",
        "meta_object_id": "1993-009B",
        "meta_epoch": "2025-12-21T17:33:16.575840",
        "meta_mean_motion": 14.46004662,
        "meta_eccentricity": 0.00421475,
        "meta_inclination": 24.9681,
        "meta_ra_of_asc_node": 223.1799,
        "meta_arg_of_pericenter": 60.1108,
        "meta_mean_anomaly": 350.9705,
        "meta_ephemeris_type": 0,
        "meta_classification_type": "U",
        "meta_norad_cat_id": 22490,
        "meta_element_set_no": 999,
        "meta_rev_at_epoch": 73540,
        "meta_bstar": 6.8233163e-05,
        "meta_mean_motion_dot": 4.34e-06,
        "meta_mean_motion_ddot": 0,
        "tle_line1": "1 22490U 93009B   25355.73144185  .00000434  00000+0  68233-4 0  9997",
        "tle_line2": "2 22490  24.9681 223.1799 0042147  60.1108 350.9705 14.46004662735407"
      },
      "geometry": {
        "type": "Point",
        "coordinates": [
          -159.94915016173027,
          -8.041998530704927
        ]
      }
    },
    {
      "type": "Feature",
      "properties": {
        "norad_id": 25397,
        "name": "TECHSAT 1B (GO-32)",
        "group": "resource",
        "lat": 19.55781355366262,
        "lon": -23.169456947738052,
        "alt_km": 809.4499982270727,
        "timestamp": "2025-12-22T14:45:57.041241+00:00",
        "meta_object_name": "TECHSAT 1B (GO-32)",
        "meta_object_id": "1998-043D",
        "meta_epoch": "2025-12-21T20:07:42.088512",
        "meta_mean_motion": 14.24379411,
        "meta_eccentricity": 0.0001773,
        "meta_inclination": 98.993,
        "meta_ra_of_asc_node": 339.2611,
        "meta_arg_of_pericenter": 42.713,
        "meta_mean_anomaly": 317.4186,
        "meta_ephemeris_type": 0,
        "meta_classification_type": "U",
        "meta_norad_cat_id": 25397,
        "meta_element_set_no": 999,
        "meta_rev_at_epoch": 42608,
        "meta_bstar": 4.299504e-05,
        "meta_mean_motion_dot": 5.3e-07,
        "meta_mean_motion_ddot": 0,
        "tle_line1": "1 25397U 98043D   25355.83868158  .00000053  00000+0  42995-4 0  9997",
        "tle_line2": "2 25397  98.9930 339.2611 0001773  42.7130 317.4186 14.24379411426082"
      },
      "geometry": {
        "type": "Point",
        "coordinates": [
          -23.169456947738052,
          19.55781355366262
        ]
      }
    },
    {
      "type": "Feature",
      "properties": {
        "norad_id": 25504,
        "name": "SCD 2",
        "group": "resource",
        "lat": -3.2203927512854427,
        "lon": 74.06887121907886,
        "alt_km": 734.0080497622203,
        "timestamp": "2025-12-22T14:45:57.041257+00:00",
        "meta_object_name": "SCD 2",
        "meta_object_id": "1998-060A",
        "meta_epoch": "2025-12-21T14:03:05.507424",
        "meta_mean_motion": 14.45427795,
        "meta_eccentricity": 0.0017009,
        "meta_inclination": 24.9948,
        "meta_ra_of_asc_node": 87.3516,
        "meta_arg_of_pericenter": 47.008,
        "meta_mean_anomaly": 336.2832,
        "meta_ephemeris_type": 0,
        "meta_classification_type": "U",
        "meta_norad_cat_id": 25504,
        "meta_element_set_no": 999,
        "meta_rev_at_epoch": 43460,
        "meta_bstar": 5.578e-05,
        "meta_mean_motion_dot": 3.81e-06,
        "meta_mean_motion_ddot": 0,
        "tle_line1": "1 25504U 98060A   25355.58548041  .00000381  00000+0  55780-4 0  9994",
        "tle_line2": "2 25504  24.9948  87.3516 0017009  47.0080 336.2832 14.45427795434602"
      },
      "geometry": {
        "type": "Point",
        "coordinates": [
          74.06887121907886,
          -3.2203927512854427
        ]
      }
    },
    {
      "type": "Feature",
      "properties": {
        "norad_id": 25757,
        "name": "DLR-TUBSAT",
        "group": "resource",
        "lat": 28.181150353874063,
        "lon": 166.11559825543628,
        "alt_km": 706.7960388986248,
        "timestamp": "2025-12-22T14:45:57.041269+00:00",
        "meta_object_name": "DLR-TUBSAT",
        "meta_object_id": "1999-029B",
        "meta_epoch": "2025-12-17T13:22:10.787520",
        "meta_mean_motion": 14.52359578,
        "meta_eccentricity": 0.00141996,
        "meta_inclination": 98.6566,
        "meta_ra_of_asc_node": 336.2196,
        "meta_arg_of_pericenter": 177.8976,
        "meta_mean_anomaly": 182.2281,
        "meta_ephemeris_type": 0,
        "meta_classification_type": "U",
        "meta_norad_cat_id": 25757,
        "meta_element_set_no": 999,
        "meta_rev_at_epoch": 40688,
        "meta_bstar": 3.7650132e-05,
        "meta_mean_motion_dot": 1.05e-06,
        "meta_mean_motion_ddot": 0,
        "tle_line1": "1 25757U 99029B   25351.55706930  .00000105  00000+0  37650-4 0  9996",
        "tle_line2": "2 25757  98.6566 336.2196 0014199 177.8976 182.2281 14.52359578406886"
      },
      "geometry": {
        "type": "Point",
        "coordinates": [
          166.11559825543628,
          28.181150353874063
        ]
      }
    },
    {
      "type": "Feature",
      "properties": {
        "norad_id": 25994,
        "name": "TERRA",
        "group": "resource",
        "lat": 22.130061457106798,
        "lon": -128.79582320992117,
        "alt_km": 689.6689061490897,
        "timestamp": "2025-12-22T14:45:57.041281+00:00",
        "meta_object_name": "TERRA",
        "meta_object_id": "1999-068A",
        "meta_epoch": "2025-12-22T06:08:35.869344",
        "meta_mean_motion": 14.60912266,
        "meta_eccentricity": 0.00034918,
        "meta_inclination": 97.9734,
        "meta_ra_of_asc_node": 47.5906,
        "meta_arg_of_pericenter": 75.4737,
        "meta_mean_anomaly": 353.6325,
        "meta_ephemeris_type": 0,
        "meta_classification_type": "U",
        "meta_norad_cat_id": 25994,
        "meta_element_set_no": 999,
        "meta_rev_at_epoch": 38377,
        "meta_bstar": 0.00010647897,
        "meta_mean_motion_dot": 4.77e-06,
        "meta_mean_motion_ddot": 0,
        "tle_line1": "1 25994U 99068A   25356.25597071  .00000477  00000+0  10648-3 0  9997",
        "tle_line2": "2 25994  97.9734  47.5906 0003491  75.4737 353.6325 14.60912266383773"
      },
      "geometry": {
        "type": "Point",
        "coordinates": [
          -128.79582320992117,
          22.130061457106798
        ]
      }
    },
    {
      "type": "Feature",
      "properties": {
        "norad_id": 27004,
        "name": "MAROC-TUBSAT",
        "group": "resource",
        "lat": 10.861658616175161,
        "lon": -12.868218731161907,
        "alt_km": 993.9650791538725,
        "timestamp": "2025-12-22T14:45:57.041294+00:00",
        "meta_object_name": "MAROC-TUBSAT",
        "meta_object_id": "2001-056D",
        "meta_epoch": "2025-12-22T02:13:31.700928",
        "meta_mean_motion": 13.70253379,
        "meta_eccentricity": 0.00192075,
        "meta_inclination": 99.7916,
        "meta_ra_of_asc_node": 164.7016,
        "meta_arg_of_pericenter": 235.2941,
        "meta_mean_anomaly": 237.5857,
        "meta_ephemeris_type": 0,
        "meta_classification_type": "U",
        "meta_norad_cat_id": 27004,
        "meta_element_set_no": 999,
        "meta_rev_at_epoch": 20193,
        "meta_bstar": 2.4567548e-05,
        "meta_mean_motion_dot": -2.5e-07,
        "meta_mean_motion_ddot": 0,
        "tle_line1": "1 27004U 01056D   25356.09272802 -.00000025  00000+0  24568-4 0  9992",
        "tle_line2": "2 27004  99.7916 164.7016 0019207 235.2941 237.5857 13.70253379201938"
      },
      "geometry": {
        "type": "Point",
        "coordinates": [
          -12.868218731161907,
          10.861658616175161
        ]
      }
    },
    {
      "type": "Feature",
      "properties": {
        "norad_id": 27424,
        "name": "AQUA",
        "group": "resource",
        "lat": 63.923713712992544,
        "lon": -59.92983628533609,
        "alt_km": 680.3040976542843,
        "timestamp": "2025-12-22T14:45:57.041326+00:00",
        "meta_object_name": "AQUA",
        "meta_object_id": "2002-022A",
        "meta_epoch": "2025-12-21T22:23:22.229952",
        "meta_mean_motion": 14.61820667,
        "meta_eccentricity": 0.0001439,
        "meta_inclination": 98.405,
        "meta_ra_of_asc_node": 316.9619,
        "meta_arg_of_pericenter": 110.3776,
        "meta_mean_anomaly": 326.1362,
        "meta_ephemeris_type": 0,
        "meta_classification_type": "U",
        "meta_norad_cat_id": 27424,
        "meta_element_set_no": 999,
        "meta_rev_at_epoch": 25737,
        "meta_bstar": 0.00018434,
        "meta_mean_motion_dot": 8.71e-06,
        "meta_mean_motion_ddot": 0,
        "tle_line1": "1 27424U 02022A   25355.93289618  .00000871  00000+0  18434-3 0  9999",
        "tle_line2": "2 27424  98.4050 316.9619 0001439 110.3776 326.1362 14.61820667257372"
      },
      "geometry": {
        "type": "Point",
        "coordinates": [
          -59.92983628533609,
          63.923713712992544
        ]
      }
    }
  ]
}